ELYSIUM STAR 2 & LFF    
1 43760U 18099C   24265.17789319  .00111298  00000+0  26482-2 0  9996
2 43760  97.5032 334.1131 0005458 264.9409  95.1214 15.41190350317934
